OBJECT_NAME,OBJECT_ID,EPOCH,MEAN_MOTION,ECCENTRICITY,INCLINATION,RA_OF_ASC_NODE,ARG_OF_PERICENTER,MEAN_ANOMALY,EPHEMERIS_TYPE,CLASSIFICATION_TYPE,NORAD_CAT_ID,ELEMENT_SET_NO,REV_AT_EPOCH,BSTAR,MEAN_MOTION_DOT,MEAN_MOTION_DDOT
STARLINK-34438,2025-223Y,2026-07-21T21:30:39.694464,15.34422504,.00008773,53.1596,29.3558,203.9478,156.1484,0,U,65876,999,4477,.10319187E-2,.34675E-3,0
STARLINK-35462,2025-223Z,2026-07-21T13:09:18.831168,15.30193178,.00011994,53.1581,32.1472,86.0764,274.0374,0,U,65877,999,4470,-.15558989E-4,-.82E-5,0
STARLINK-35453,2025-223AA,2026-07-21T21:48:43.438176,15.34433077,.00011417,53.1596,28.7227,92.5615,267.5519,0,U,65878,999,4478,.12111819E-2,.40811E-3,0
STARLINK-35418,2025-223AB,2026-07-21T22:09:55.020672,15.34417292,.00014627,53.1596,28.8106,204.5195,155.5738,0,U,65879,999,4478,.5909E-3,.19652E-3,0
STARLINK-35445,2025-223AC,2026-07-22T05:52:50.851200,15.34396263,.00007857,53.1607,27.2628,92.0916,268.0177,0,U,65880,999,4483,.74773845E-3,.24968E-3,0
STARLINK-35464,2025-223AD,2026-07-21T12:16:51.555648,15.34413746,.0000854,53.1605,30.5075,66.1665,293.9427,0,U,65881,999,4472,.73747608E-3,.24633E-3,0
STARLINK-35270,2025-224A,2026-07-21T23:51:26.813376,15.34408587,.00014825,53.1586,104.9237,91.3928,268.7244,0,U,65882,999,4542,.99585552E-3,.3343E-3,0
STARLINK-35367,2025-224B,2026-07-22T01:07:04.354752,15.34430371,.00012535,53.1581,104.5374,96.5304,263.5842,0,U,65883,999,4543,.11158244E-2,.37549E-3,0
STARLINK-35384,2025-224C,2026-07-22T01:05:45.311712,15.30221771,.00014372,53.1595,107.3633,91.7872,268.3293,0,U,65884,999,4539,.69248884E-3,.2022E-3,0
STARLINK-35415,2025-224D,2026-07-22T00:57:58.166784,15.34419284,.00011535,53.1588,104.4988,99.5251,260.5882,0,U,65885,999,4538,.11209734E-2,.37711E-3,0
STARLINK-35413,2025-224E,2026-07-22T00:51:54.166176,15.34434745,.00015964,53.1578,104.4714,150.2448,209.8645,0,U,65886,999,4538,.11039189E-2,.37148E-3,0
STARLINK-35332,2025-224F,2026-07-22T00:39:47.035008,15.34432439,.00011262,53.1566,104.4154,125.6295,234.4813,0,U,65887,999,4546,.10450736E-2,.35135E-3,0
STARLINK-35362,2025-224G,2026-07-22T01:16:23.535552,15.30220808,.00010697,53.1593,107.4132,102.8571,257.2549,0,U,65888,999,4539,.85479261E-3,.25059E-3,0
STARLINK-35193,2025-224H,2026-07-21T23:56:01.009824,15.30207121,.00015094,53.1607,107.7648,97.7921,262.3252,0,U,65889,999,4541,.69277096E-3,.20219E-3,0
STARLINK-34542,2025-224J,2026-07-22T01:25:31.447200,15.30241290,.00011413,53.1597,107.4544,84.7775,275.3356,0,U,65890,999,4544,.10538439E-2,.31023E-3,0
STARLINK-34791,2025-224K,2026-07-22T00:05:07.734336,15.30218812,.00015058,53.1596,107.8044,117.6356,242.4798,0,U,65891,999,4543,.52801881E-3,.15321E-3,0
STARLINK-34853,2025-224L,2026-07-22T01:16:09.157728,15.34440782,.0001346,53.1581,104.5764,82.5353,277.5803,0,U,65892,999,4541,.10455474E-2,.35161E-3,0
STARLINK-34921,2025-224M,2026-07-22T01:20:58.792128,15.30193889,.00015235,53.1589,107.4255,57.4787,302.6361,0,U,65893,999,4544,.78305137E-3,.229E-3,0
STARLINK-34672,2025-224N,2026-07-22T01:10:18.581952,15.30223920,.00011981,53.1588,107.3777,97.1736,262.9401,0,U,65894,999,4544,.94701664E-3,.27815E-3,0
STARLINK-34898,2025-224P,2026-07-21T23:48:24.335712,15.34417840,.00013117,53.1589,104.8974,94.2820,265.8332,0,U,65895,999,4547,.60954735E-3,.20286E-3,0
STARLINK-34906,2025-224Q,2026-07-22T00:33:50.230656,15.31727797,.00012363,53.1577,106.5066,113.0662,247.0470,0,U,65896,999,4545,.59003404E-3,.18004E-3,0
STARLINK-34934,2025-224R,2026-07-22T01:04:01.526304,15.34414759,.00011113,53.1594,104.5123,111.7342,248.3779,0,U,65897,999,4543,.74631757E-3,.24935E-3,0
STARLINK-34936,2025-224S,2026-07-22T01:13:07.076640,15.34428626,.00010049,53.1591,104.5529,60.3037,299.8065,0,U,65898,999,4548,.11789395E-2,.39703E-3,0
STARLINK-35272,2025-224T,2026-07-21T10:44:42.967392,15.34412933,.0000925,53.1577,107.1856,95.8785,264.2323,0,U,65899,999,4538,.44355661E-3,.14646E-3,0
STARLINK-35264,2025-224U,2026-07-21T02:49:40.867968,15.34413770,.00016213,53.1589,108.6827,84.5111,275.6077,0,U,65900,999,4533,.41756241E-3,.13764E-3,0
STARLINK-35249,2025-224V,2026-07-22T01:13:21.399168,15.30219095,.00022814,53.1596,107.3912,51.7517,308.3688,0,U,65901,999,4542,.60240161E-3,.17535E-3,0
STARLINK-35278,2025-224W,2026-07-21T23:54:30.043584,15.30214360,.00016446,53.1601,107.7557,91.1735,268.9454,0,U,65902,999,4543,.7227196E-3,.21116E-3,0
STARLINK-35210,2025-224X,2026-07-22T00:08:10.282848,15.30213712,.00014163,53.1590,107.8139,118.4070,241.7074,0,U,65903,999,4541,.52781898E-3,.15312E-3,0
STARLINK-35348,2025-224Y,2026-07-22T00:54:56.212704,15.34414461,.0001395,53.1573,104.4724,93.1435,266.9727,0,U,65904,999,4543,.76547344E-3,.25587E-3,0
STARLINK-35380,2025-224Z,2026-07-21T03:02:56.058144,15.30212695,.0001842,53.1587,111.5753,83.7988,276.3223,0,U,65905,999,4525,.39615896E-3,.11396E-3,0
