STARLINK-34438          
1 65876U 25223Y   26202.89629276  .00034675  00000+0  10319-2 0  9997
2 65876  53.1596  29.3558 0000877 203.9478 156.1484 15.34422504 44771
STARLINK-35462          
1 65877U 25223Z   26202.54813462 -.00000820  00000+0 -15559-4 0  9992
2 65877  53.1581  32.1472 0001199  86.0764 274.0374 15.30193178 44708
STARLINK-35453          
1 65878U 25223AA  26202.90883609  .00040811  00000+0  12112-2 0  9995
2 65878  53.1596  28.7227 0001141  92.5615 267.5519 15.34433077 44783
STARLINK-35418          
1 65879U 25223AB  26202.92355348  .00019652  00000+0  59090-3 0  9998
2 65879  53.1596  28.8106 0001462 204.5195 155.5738 15.34417292 44785
STARLINK-35445          
1 65880U 25223AC  26203.24503300  .00024968  00000+0  74774-3 0  9991
2 65880  53.1607  27.2628 0000785  92.0916 268.0177 15.34396263 44837
STARLINK-35464          
1 65881U 25223AD  26202.51170782  .00024633  00000+0  73748-3 0  9994
2 65881  53.1605  30.5075 0000854  66.1665 293.9427 15.34413746 44728
STARLINK-35270          
1 65882U 25224A   26202.99406034  .00033430  00000+0  99586-3 0  9993
2 65882  53.1586 104.9237 0001482  91.3928 268.7244 15.34408587 45425
STARLINK-35367          
1 65883U 25224B   26203.04657818  .00037549  00000+0  11158-2 0  9992
2 65883  53.1581 104.5374 0001253  96.5304 263.5842 15.34430371 45434
STARLINK-35384          
1 65884U 25224C   26203.04566333  .00020220  00000+0  69249-3 0  9997
2 65884  53.1595 107.3633 0001437  91.7872 268.3293 15.30221771 45396
STARLINK-35415          
1 65885U 25224D   26203.04025656  .00037711  00000+0  11210-2 0  9993
2 65885  53.1588 104.4988 0001153  99.5251 260.5882 15.34419284 45381
STARLINK-35413          
1 65886U 25224E   26203.03604359  .00037148  00000+0  11039-2 0  9999
2 65886  53.1578 104.4714 0001596 150.2448 209.8645 15.34434745 45384
STARLINK-35332          
1 65887U 25224F   26203.02762772  .00035135  00000+0  10451-2 0  9994
2 65887  53.1566 104.4154 0001126 125.6295 234.4813 15.34432439 45463
STARLINK-35362          
1 65888U 25224G   26203.05305018  .00025059  00000+0  85479-3 0  9991
2 65888  53.1593 107.4132 0001069 102.8571 257.2549 15.30220808 45395
STARLINK-35193          
1 65889U 25224H   26202.99723391  .00020219  00000+0  69277-3 0  9993
2 65889  53.1607 107.7648 0001509  97.7921 262.3252 15.30207121 45411
STARLINK-34542          
1 65890U 25224J   26203.05939175  .00031023  00000+0  10538-2 0  9992
2 65890  53.1597 107.4544 0001141  84.7775 275.3356 15.30241290 45445
STARLINK-34791          
1 65891U 25224K   26203.00356174  .00015321  00000+0  52802-3 0  9994
2 65891  53.1596 107.8044 0001505 117.6356 242.4798 15.30218812 45437
STARLINK-34853          
1 65892U 25224L   26203.05288377  .00035161  00000+0  10455-2 0  9990
2 65892  53.1581 104.5764 0001346  82.5353 277.5803 15.34440782 45416
STARLINK-34921          
1 65893U 25224M   26203.05623602  .00022900  00000+0  78305-3 0  9991
2 65893  53.1589 107.4255 0001523  57.4787 302.6361 15.30193889 45442
STARLINK-34672          
1 65894U 25224N   26203.04882618  .00027815  00000+0  94702-3 0  9994
2 65894  53.1588 107.3777 0001198  97.1736 262.9401 15.30223920 45446
STARLINK-34898          
1 65895U 25224P   26202.99194833  .00020286  00000+0  60955-3 0  9991
2 65895  53.1589 104.8974 0001311  94.2820 265.8332 15.34417840 45476
STARLINK-34906          
1 65896U 25224Q   26203.02349804  .00018004  00000+0  59003-3 0  9994
2 65896  53.1577 106.5066 0001236 113.0662 247.0470 15.31727797 45450
STARLINK-34934          
1 65897U 25224R   26203.04446211  .00024935  00000+0  74632-3 0  9992
2 65897  53.1594 104.5123 0001111 111.7342 248.3779 15.34414759 45432
STARLINK-34936          
1 65898U 25224S   26203.05077635  .00039703  00000+0  11789-2 0  9996
2 65898  53.1591 104.5529 0001004  60.3037 299.8065 15.34428626 45483
STARLINK-35272          
1 65899U 25224T   26202.44771953  .00014646  00000+0  44356-3 0  9999
2 65899  53.1577 107.1856 0000925  95.8785 264.2323 15.34412933 45380
STARLINK-35264          
1 65900U 25224U   26202.11783412  .00013764  00000+0  41756-3 0  9990
2 65900  53.1589 108.6827 0001621  84.5111 275.6077 15.34413770 45339
STARLINK-35249          
1 65901U 25224V   26203.05094212  .00017535  00000+0  60240-3 0  9997
2 65901  53.1596 107.3912 0002281  51.7517 308.3688 15.30219095 45420
STARLINK-35278          
1 65902U 25224W   26202.99618106  .00021116  00000+0  72272-3 0  9992
2 65902  53.1601 107.7557 0001644  91.1735 268.9454 15.30214360 45432
STARLINK-35210          
1 65903U 25224X   26203.00567457  .00015312  00000+0  52782-3 0  9993
2 65903  53.1590 107.8139 0001416 118.4070 241.7074 15.30213712 45414
STARLINK-35348          
1 65904U 25224Y   26203.03815061  .00025587  00000+0  76547-3 0  9994
2 65904  53.1573 104.4724 0001395  93.1435 266.9727 15.34414461 45433
STARLINK-35380          
1 65905U 25224Z   26202.12703771  .00011396  00000+0  39616-3 0  9997
2 65905  53.1587 111.5753 0001842  83.7988 276.3223 15.30212695 45252
